ORBCOMM FM32            
1 25982U 99065C   24189.45355728  .00001127  00000+0  44615-3 0  9991
2 25982  45.0167 287.1708 0004512 128.4327 231.6926 14.34441256285067
ORBCOMM FM33            
1 25983U 99065D   24190.17797941  .00001235  00000+0  45185-3 0  9993
2 25983  45.0277 192.0461 0006375 135.4928 224.6434 14.37910762286584
ORBCOMM FM36            
1 25984U 99065E   24189.60757042  .00001407  00000+0  52990-3 0  9991
2 25984  45.0403 281.2385 0002897 326.2783  33.7881 14.35836034285442
ORBCOMM FM35            
1 25985U 99065F   24189.45920345  .00001068  00000+0  41811-3 0  9996
2 25985  45.0405 284.7903 0002539 149.9657 210.1336 14.35346431285221
ORBCOMM FM34            
1 25986U 99065G   24189.43080369  .00001102  00000+0  42992-3 0  9998
2 25986  45.0399 285.4700 0001581  49.5090 310.5895 14.35322773285339
ORBCOMM FM38            
1 33060U 08031A   24189.85151994  .00002604  00000+0  38633-3 0  9997
2 33060  48.4399 152.3105 0005776   0.8977 359.1946 14.77915373863746
ORBCOMM FM41            
1 33061U 08031B   24189.46388554  .00002508  00000+0  37564-3 0  9994
2 33061  48.4429 160.9066 0005085 345.2889 170.2645 14.77635023863191
ORBCOMM FM29            
1 33062U 08031C   24190.19076432  .00002439  00000+0  36646-3 0  9999
2 33062  48.4382 165.4985 0006938 347.0577 127.5248 14.77586489863603
ORBCOMM FM39            
1 33063U 08031D   24190.17544580  .00001749  00000+0  27761-3 0  9993
2 33063  48.4388 186.5432 0008025 322.6794  37.3561 14.76536658863327
ORBCOMM FM37            
1 33064U 08031E   24190.14599368  .00001997  00000+0  31111-3 0  9994
2 33064  48.4383 175.7847 0006385 339.8117 115.3735 14.76765808863465
ORBCOMM FM40            
1 33065U 08031F   24190.20808134  .00002757  00000+0  40503-3 0  9996
2 33065  48.4410 164.2789 0007597 350.3140  23.1961 14.78170669863638
VESSELSAT 1             
1 37840U 11058C   24190.19108746  .00000387  00000+0  66675-4 0  9990
2 37840  19.9637  15.1437 0013711   3.3956 356.6540 14.11172268657885
ORBCOMM FM109           
1 40086U 14040A   24190.08118697  .00000834  00000+0  22170-3 0  9992
2 40086  47.0020 199.9222 0001735 209.6026 150.4761 14.56793186530987
ORBCOMM FM107           
1 40087U 14040B   24189.42916874  .00000623  00000+0  17501-3 0  9990
2 40087  47.0039 203.9652 0000629 189.1089 170.9785 14.56802553530840
ORBCOMM FM106           
1 40088U 14040C   24189.34917827  .00001299  00000+0  26032-3 0  9990
2 40088  47.0623  53.1865 0018254 265.2211  94.6594 14.67261278532798
ORBCOMM FM111           
1 40089U 14040D   24189.54042288  .00002995  00000+0  39436-3 0  9999
2 40089  47.0048 306.3858 0033100 343.7512  16.2319 14.82186663539027
ORBCOMM FM104           
1 40090U 14040E   24189.46033024  .00000630  00000+0  18253-3 0  9998
2 40090  47.0043 233.3887 0016021  68.5423 291.7168 14.55277833530383
ORBCOMM FM103           
1 40091U 14040F   24189.52401302  .00000670  00000+0  18563-3 0  9992
2 40091  47.0041 203.8921 0001106 164.1724 195.9196 14.56738321513829
ORBCOMM FM114           
1 41179U 15081A   24189.82945605  .00001039  00000+0  26699-3 0  9997
2 41179  47.0028 111.6910 0001459 224.3243 135.7525 14.56819091454288
ORBCOMM FM119           
1 41180U 15081B   24189.52835847  .00000863  00000+0  22861-3 0  9993
2 41180  47.0023  22.3234 0001922 262.4557  97.6109 14.56722553455447
ORBCOMM FM105           
1 41181U 15081C   24189.51119158  .00000425  00000+0  16731-3 0  9996
2 41181  47.0032 354.6436 0002346 225.2063 134.8627 14.44464818451015
ORBCOMM FM110           
1 41182U 15081D   24189.87566884  .00001285  00000+0  32166-3 0  9993
2 41182  47.0017 110.8807 0001897   9.7584 350.3338 14.56784572454298
ORBCOMM FM118           
1 41183U 15081E   24189.85344244  .00001117  00000+0  28429-3 0  9997
2 41183  47.0039 111.3080 0002133   7.6229 352.4688 14.56795681454293
ORBCOMM FM112           
1 41184U 15081F   24189.57369582  .00001219  00000+0  30754-3 0  9996
2 41184  47.0006  21.3122 0002099 242.5553 117.5118 14.56706808455399
ORBCOMM FM113           
1 41185U 15081G   24189.82532177  .00001289  00000+0  32294-3 0  9995
2 41185  47.0026  20.4037 0001795 255.3155 104.7531 14.56706947455480
ORBCOMM FM115           
1 41186U 15081H   24189.36309398  .00000795  00000+0  19620-3 0  9991
2 41186  46.9979 237.6705 0001770 281.5669  78.5019 14.60863216457326
ORBCOMM FM108           
1 41187U 15081J   24189.50539730  .00001415  00000+0  35103-3 0  9997
2 41187  47.0057 293.1374 0002457 194.9558 165.1255 14.56707885456511
ORBCOMM FM117           
1 41188U 15081K   24189.74554370  .00001392  00000+0  34589-3 0  9992
2 41188  47.0017 290.8793 0003281 201.3018 158.7731 14.56710346456644
ORBCOMM FM116           
1 41189U 15081L   24189.52877949  .00001238  00000+0  31155-3 0  9994
2 41189  47.0035  21.7204 0002530 258.8750 101.1851 14.56719234455446
